[{"OBJECT_NAME":"JY1SAT (JO-97)","OBJECT_ID":"2018-099AX","EPOCH":"2026-03-09T16:28:19.890048","MEAN_MOTION":15.30302629,"ECCENTRICITY":0.00047232,"INCLINATION":97.4249,"RA_OF_ASC_NODE":131.3625,"ARG_OF_PERICENTER":256.6795,"MEAN_ANOMALY":103.3919,"EPHEMERIS_TYPE":0,"CLASSIFICATION_TYPE":"U","NORAD_CAT_ID":43803,"ELEMENT_SET_NO":999,"REV_AT_EPOCH":39839,"BSTAR":0.00060804308,"MEAN_MOTION_DOT":0.00017774,"MEAN_MOTION_DDOT":0},{"OBJECT_NAME":"STARLINK-31598","OBJECT_ID":"2024-050K","EPOCH":"2026-03-09T15:04:59.250720","MEAN_MOTION":15.30183586,"ECCENTRICITY":0.0001335,"INCLINATION":53.1619,"RA_OF_ASC_NODE":181.6524,"ARG_OF_PERICENTER":82.4699,"MEAN_ANOMALY":277.6453,"EPHEMERIS_TYPE":0,"CLASSIFICATION_TYPE":"U","NORAD_CAT_ID":59263,"ELEMENT_SET_NO":999,"REV_AT_EPOCH":11053,"BSTAR":9.4387e-6,"MEAN_MOTION_DOT":-8.0e-7,"MEAN_MOTION_DDOT":0}]
